$$SOE
2460147.500000000, A.D. 2023-Jul-22 00:00:00.0000, -1.450684424067331E+08, -5.494301162671326E+08, 8.611633598481399E+07,
2460154.500000000, A.D. 2023-Jul-29 00:00:00.0000, -1.370831633326999E+08, -5.504351331751549E+08, 8.434932155172673E+07,
2460161.500000000, A.D. 2023-Aug-05 00:00:00.0000, -1.290626618952661E+08, -5.512984821533215E+08, 8.256059713374391E+07,
2460168.500000000, A.D. 2023-Aug-12 00:00:00.0000, -1.210087791553047E+08, -5.520189782032725E+08, 8.075047889017272E+07,
2460175.500000000, A.D. 2023-Aug-19 00:00:00.0000, -1.129233854855155E+08, -5.525954383787732E+08, 7.891929001004916E+07,
2460182.500000000, A.D. 2023-Aug-26 00:00:00.0000, -1.048083815506643E+08, -5.530266819776857E+08, 7.706736097411388E+07,
2460189.500000000, A.D. 2023-Sep-02 00:00:00.0000, -9.666569933529615E+07, -5.533115308378897E+08, 7.519502982100379E+07,
2460196.500000000, A.D. 2023-Sep-09 00:00:00.0000, -8.849730318268152E+07, -5.534488097800174E+08, 7.330264241119343E+07,
2460203.500000000, A.D. 2023-Sep-16 00:00:00.0000, -8.030519067696700E+07, -5.534373472568521E+08, 7.139055266881832E+07,
2460210.500000000, A.D. 2023-Sep-23 00:00:00.0000, -7.209139295257013E+07, -5.532759759245552E+08, 6.945912278697568E+07,
2460217.500000000, A.D. 2023-Sep-30 00:00:00.0000, -6.385797477087589E+07, -5.529635319469291E+08, 6.750872352531034E+07,
2460224.500000000, A.D. 2023-Oct-07 00:00:00.0000, -5.560703671833156E+07, -5.524988535771557E+08, 6.553973477169132E+07,
2460231.500000000, A.D. 2023-Oct-14 00:00:00.0000, -4.734071848593312E+07, -5.518807823318747E+08, 6.355254600209448E+07,
2460238.500000000, A.D. 2023-Oct-21 00:00:00.0000, -3.906120000128836E+07, -5.511081651575106E+08, 6.154755647400516E+07,
2460245.500000000, A.D. 2023-Oct-28 00:00:00.0000, -3.077070183779245E+07, -5.501798553317255E+08, 5.952517546932486E+07,
2460252.500000000, A.D. 2023-Nov-04 00:00:00.0000, -2.247148615121567E+07, -5.490947128731302E+08, 5.748582263905215E+07,
2460259.500000000, A.D. 2023-Nov-11 00:00:00.0000, -1.416585796627248E+07, -5.478516050617757E+08, 5.542992838494033E+07,
2460266.500000000, A.D. 2023-Nov-18 00:00:00.0000, -5.856166593651853E+06, -5.464494071374415E+08, 5.335793425320572E+07,
2460273.500000000, A.D. 2023-Nov-25 00:00:00.0000, 2.455192895550671E+06, -5.448870031560100E+08, 5.127029333586073E+07,
2460280.500000000, A.D. 2023-Dec-02 00:00:00.0000, 1.076577816665095E+07, -5.431632870182620E+08, 4.916747067655489E+07,
2460287.500000000, A.D. 2023-Dec-09 00:00:00.0000, 1.907309816787185E+07, -5.412771637335587E+08, 4.704994366934139E+07,
2460294.500000000, A.D. 2023-Dec-16 00:00:00.0000, 2.737461201466051E+07, -5.392275509097886E+08, 4.491820242536989E+07,
2460301.500000000, A.D. 2023-Dec-23 00:00:00.0000, 3.566772856081750E+07, -5.370133797863111E+08, 4.277275013198391E+07,
2460308.500000000, A.D. 2023-Dec-30 00:00:00.0000, 4.394980531671146E+07, -5.346335947647035E+08, 4.061410361301091E+07,
2460315.500000000, A.D. 2024-Jan-06 00:00:00.0000, 5.221814494294418E+07, -5.320871538016373E+08, 3.844279405978119E+07,
2460322.500000000, A.D. 2024-Jan-13 00:00:00.0000, 6.046999249378660E+07, -5.293730314747128E+08, 3.625936749400032E+07,
2460329.500000000, A.D. 2024-Jan-20 00:00:00.0000, 6.870253463578306E+07, -5.264902216417683E+08, 3.406438510226694E+07,
2460336.500000000, A.D. 2024-Jan-27 00:00:00.0000, 7.691289881444131E+07, -5.234377390469503E+08, 3.185842368156978E+07,
2460343.500000000, A.D. 2024-Feb-03 00:00:00.0000, 8.509815194236641E+07, -5.202146208275512E+08, 2.964207615740517E+07,
2460350.500000000, A.D. 2024-Feb-10 00:00:00.0000, 9.325529888811697E+07, -5.168199282182094E+08, 2.741595212508911E+07,
2460357.500000000, A.D. 2024-Feb-17 00:00:00.0000, 1.013812809065280E+08, -5.132527484500591E+08, 2.518067840194604E+07,
2460364.500000000, A.D. 2024-Feb-24 00:00:00.0000, 1.094729740486897E+08, -5.095121968354050E+08, 2.293689958795375E+07,
2460371.500000000, A.D. 2024-Mar-02 00:00:00.0000, 1.175271875836516E+08, -5.055974190756091E+08, 2.068527862909475E+07,
2460378.500000000, A.D. 2024-Mar-09 00:00:00.0000, 1.255406625741067E+08, -5.015075938602694E+08, 1.842649736511478E+07,
2460385.500000000, A.D. 2024-Mar-16 00:00:00.0000, 1.335100710056475E+08, -4.972419355660881E+08, 1.616125704113898E+07,
2460392.500000000, A.D. 2024-Mar-23 00:00:00.0000, 1.414320153710212E+08, -4.927996959527977E+08, 1.389027888287443E+07,
2460399.500000000, A.D. 2024-Mar-30 00:00:00.0000, 1.493030264736131E+08, -4.881801648898308E+08, 1.161430493830186E+07,
2460406.500000000, A.D. 2024-Apr-06 00:00:00.0000, 1.571195597120647E+08, -4.833826734882023E+08, 9.334098886533529E+06,
2460413.500000000, A.D. 2024-Apr-13 00:00:00.0000, 1.648779934038778E+08, -4.784065988087933E+08, 7.050446555773467E+06,
2460420.500000000, A.D. 2024-Apr-20 00:00:00.0000, 1.725746282028469E+08, -4.732513674789341E+08, 4.764156455712110E+06,
2460427.500000000, A.D. 2024-Apr-27 00:00:00.0000, 1.802056861004023E+08, -4.679164587869316E+08, 2.476060416699260E+06,
2460434.500000000, A.D. 2024-May-04 00:00:00.0000, 1.877673091065408E+08, -4.624014079655585E+08, 1.870142690066993E+05,
2460441.500000000, A.D. 2024-May-11 00:00:00.0000, 1.952555578573644E+08, -4.567058097736107E+08, -2.102101469315588E+06,
2460448.500000000, A.D. 2024-May-18 00:00:00.0000, 2.026664102408048E+08, -4.508293223610286E+08, -4.390380903229535E+06,
2460455.500000000, A.D. 2024-May-25 00:00:00.0000, 2.099957600758520E+08, -4.447716714315538E+08, -6.676892074673593E+06,
2460462.500000000, A.D. 2024-Jun-01 00:00:00.0000, 2.172394159170211E+08, -4.385326547670372E+08, -8.960676291756839E+06,
2460469.500000000, A.D. 2024-Jun-08 00:00:00.0000, 2.243931002438105E+08, -4.321121471433224E+08, -1.124074749971771E+07,
2460476.500000000, A.D. 2024-Jun-15 00:00:00.0000, 2.314524494493172E+08, -4.255101051002530E+08, -1.351609168801954E+07,
2460483.500000000, A.D. 2024-Jun-22 00:00:00.0000, 2.384130136380942E+08, -4.187265703985971E+08, -1.578566614792711E+07,
2460490.500000000, A.D. 2024-Jun-29 00:00:00.0000, 2.452702541273203E+08, -4.117616739915237E+08, -1.804839853775969E+07,
2460497.500000000, A.D. 2024-Jul-06 00:00:00.0000, 2.520195413133587E+08, -4.046156429869182E+08, -2.030318620380211E+07,
2460504.500000000, A.D. 2024-Jul-13 00:00:00.0000, 2.586561548723370E+08, -3.972888077816455E+08, -2.254889570869747E+07,
2460511.500000000, A.D. 2024-Jul-20 00:00:00.0000, 2.651752843298627E+08, -3.897816082245327E+08, -2.478436229555574E+07,
2460518.500000000, A.D. 2024-Jul-27 00:00:00.0000, 2.715720293656645E+08, -3.820945997719134E+08, -2.700838931073424E+07,
2460525.500000000, A.D. 2024-Aug-03 00:00:00.0000, 2.778414001493621E+08, -3.742284600135663E+08, -2.921974764617482E+07,
2460532.500000000, A.D. 2024-Aug-10 00:00:00.0000, 2.839783178981923E+08, -3.661839955749359E+08, -3.141717522259177E+07,
2460539.500000000, A.D. 2024-Aug-17 00:00:00.0000, 2.899776157308934E+08, -3.579621493738876E+08, -3.359937652234581E+07,
2460546.500000000, A.D. 2024-Aug-24 00:00:00.0000, 2.958340398742218E+08, -3.495640082525116E+08, -3.576502218324716E+07,
2460553.500000000, A.D. 2024-Aug-31 00:00:00.0000, 3.015422513683659E+08, -3.409908110417590E+08, -3.791274867640917E+07,
2460560.500000000, A.D. 2024-Sep-07 00:00:00.0000, 3.070968286699164E+08, -3.322439569272067E+08, -4.004115809951438E+07,
2460567.500000000, A.D. 2024-Sep-14 00:00:00.0000, 3.124922712731050E+08, -3.233250131138976E+08, -4.214881802081798E+07,
2460574.500000000, A.D. 2024-Sep-21 00:00:00.0000, 3.177230023567262E+08, -3.142357213700513E+08, -4.423426116367963E+07,
2460581.500000000, A.D. 2024-Sep-28 00:00:00.0000, 3.227833700052788E+08, -3.049780066655215E+08, -4.629598516080278E+07,
2460588.500000000, A.D. 2024-Oct-05 00:00:00.0000, 3.276676507116493E+08, -2.955539878865891E+08, -4.833245272526142E+07,
2460595.500000000, A.D. 2024-Oct-12 00:00:00.0000, 3.323700548411767E+08, -2.859659876274458E+08, -5.034209197301768E+07,
2460602.500000000, A.D. 2024-Oct-19 00:00:00.0000, 3.368847323478764E+08, -2.762165413068184E+08, -5.232329677047804E+07,
2460609.500000000, A.D. 2024-Oct-26 00:00:00.0000, 3.412057787523639E+08, -2.663084063845038E+08, -5.427442718220387E+07,
2460616.500000000, A.D. 2024-Nov-02 00:00:00.0000, 3.453272416805822E+08, -2.562445717946290E+08, -5.619381006755383E+07,
2460623.500000000, A.D. 2024-Nov-09 00:00:00.0000, 3.492431281010913E+08, -2.460282675377306E+08, -5.807973984676418E+07,
2460630.500000000, A.D. 2024-Nov-16 00:00:00.0000, 3.529474123271646E+08, -2.356629743876912E+08, -5.993047945230578E+07,
2460637.500000000, A.D. 2024-Nov-23 00:00:00.0000, 3.564340448703905E+08, -2.251524337125909E+08, -6.174426148753314E+07,
2460644.500000000, A.D. 2024-Nov-30 00:00:00.0000, 3.596969623938933E+08, -2.145006573940190E+08, -6.351928962916771E+07,
2460651.500000000, A.D. 2024-Dec-07 00:00:00.0000, 3.627300992254223E+08, -2.037119373599375E+08, -6.525374029232420E+07,
2460658.500000000, A.D. 2024-Dec-14 00:00:00.0000, 3.655273997827916E+08, -1.927908534391630E+08, -6.694576441045074E+07,
2460665.500000000, A.D. 2024-Dec-21 00:00:00.0000, 3.680828296296267E+08, -1.817422807065751E+08, -6.859348923476177E+07,
2460672.500000000, A.D. 2024-Dec-28 00:00:00.0000, 3.703903871617684E+08, -1.705713992061881E+08, -7.019502059138092E+07,
2460679.500000000, A.D. 2025-Jan-04 00:00:00.0000, 3.724441185434496E+08, -1.592837035854186E+08, -7.174844565389536E+07,
2460686.500000000, A.D. 2025-Jan-11 00:00:00.0000, 3.742381340895644E+08, -1.478850108828640E+08, -7.325183594170111E+07,
2460693.500000000, A.D. 2025-Jan-18 00:00:00.0000, 3.757666251878116E+08, -1.363814672838437E+08, -7.470325054726931E+07,
2460700.500000000, A.D. 2025-Jan-25 00:00:00.0000, 3.770238820062567E+08, -1.247795542065767E+08, -7.610073966423701E+07,
2460707.500000000, A.D. 2025-Feb-01 00:00:00.0000, 3.780043121682843E+08, -1.130860936307497E+08, -7.744234844532166E+07,
2460714.500000000, A.D. 2025-Feb-08 00:00:00.0000, 3.787024604351372E+08, -1.013082525245298E+08, -7.872612120107274E+07,
$$EOE